METEOSAT-5 (MOP-2)      
1 21140U 91015B   09302.71379734 -.00000095  00000-0  10000-3 0  9763
2 21140  11.2090  47.7056 0005683 142.0041 218.0091  0.98451196 70401
METEOSAT-6 (MOP-3)      
1 22912U 93073B   09305.57693947 -.00000003  00000-0  10000-3 0  3234
2 22912   8.6896  58.2352 0001066 210.6612  47.2198  1.00273506 56849
HIMAWARI-5 (GMS-5)      
1 23522U 95011B   09309.32711701  .00000007  00000-0  10000-3 0  3628
2 23522   7.8599  61.2095 0004985 334.1536  25.7269  0.99402279 53346
GOES 10                 
1 24786U 97019A   09309.24962089 -.00000274  00000-0  10000-3 0  1657
2 24786   3.9768  72.7148 0003042 192.2535 169.7490  1.00271159 45929
ORBVIEW 2 (SEASTAR)     
1 24883U 97037A   09308.77353959 -.00000040  00000-0  17315-5 0  9738
2 24883  98.3595  73.6927 0002384 115.5575 244.5882 14.60009182652957
METEOSAT-7              
1 24932U 97049B   09308.07012444  .00000079  00000-0  10000-3 0  7663
2 24932   5.5353  67.8731 0000918 230.2563 187.9405  1.00275487 44594
NOAA 15                 
1 25338U 98030A   09309.20751146  .00000179  00000-0  95190-4 0  1434
2 25338  98.5980 295.4237 0010873  12.6301 347.5169 14.24791820596852
GOES 11                 
1 26352U 00022A   09308.98070552  .00000000  00000-0  10000-3 0  5617
2 26352   0.1361 261.6368 0005419 336.8546  24.3038  1.00262537 34820
FENGYUN 2B              
1 26382U 00032A   09301.96866694  .00000156  00000-0  10000-3 0  2150
2 26382   4.6632  70.7801 0004165 189.1587 170.8798  1.00075802 34204
NOAA 16                 
1 26536U 00055A   09309.25206214 -.00000224  00000-0 -96011-4 0  6230
2 26536  99.1781 316.3584 0009833 243.3283 116.6901 14.12535984470217
GOES 12                 
1 26871U 01031A   09307.42319284 -.00000236  00000-0  10000-3 0  2990
2 26871   0.3637  83.2835 0003086  83.4811 313.5011  1.00279833 30400
FENGYUN 1D              
1 27431U 02024B   09308.93442856  .00000144  00000-0  10663-3 0  7262
2 27431  98.6419 292.8817 0015719  17.7766 342.3923 14.09288616384635
NOAA 17                 
1 27453U 02032A   09309.36461250 -.00000017  00000-0  10776-4 0  6155
2 27453  98.4665   3.4440 0012665  74.0397 286.2192 14.24103672382841
METEOSAT-8 (MSG-1)      
1 27509U 02040B   09308.09339920  .00000075  00000-0  10000-3 0  4197
2 27509   0.4030 350.8133 0001715 225.5304 230.1535  1.00267465 26402
KALPANA-1 (METSAT 1)    
1 27525U 02043A   09308.90670512 -.00000067  00000-0  10000-3 0   562
2 27525   0.1403  82.7707 0003400  50.2316 311.7508  1.00273079 26211
INSAT-3A                
1 27714U 03013A   09306.73712003 -.00000243  00000-0  10000-3 0  8633
2 27714   0.1067  80.1193 0005410 157.4111 163.5199  1.00272665 24097
FENGYUN 2C              
1 28451U 04042A   09308.23230863 -.00000316  00000-0  00000+0 0  7030
2 28451   1.7406  76.0844 0001416 317.3834 198.2752  1.00272059 18458
HIMAWARI 6 (MTSAT-1R)   
1 28622U 05006A   09307.58911491 -.00000266  00000-0  10000-3 0  2866
2 28622   0.0580  52.0371 0002366 354.2887 348.8282  1.00271215 17155
NOAA 18                 
1 28654U 05018A   09309.34479064 -.00000007  00000-0  20640-4 0  1038
2 28654  98.9219 251.5764 0013966 328.2485  31.7854 14.11298349229869
METEOSAT-9 (MSG-2)      
1 28912U 05049B   09307.94172909  .00000010  00000-0  10000-3 0  5856
2 28912   0.1111 268.9992 0001492 359.9423 113.2466  1.00276760 14258
MTSAT-2                 
1 28937U 06004A   09307.52482102 -.00000227  00000-0  10000-3 0  6489
2 28937   0.0481  39.9170 0001154 183.0493 153.9649  1.00274568 13635
FORMOSAT 3A             
1 29047U 06011A   09309.60010605 -.00000128  00000-0 -34916-4 0   855
2 29047  71.9791  93.4094 0053219 261.3038  98.2046 14.27120166187904
FORMOSAT 3B             
1 29048U 06011B   09309.14073313  .00000390  00000-0  17471-3 0  1362
2 29048  71.9721   9.6500 0046368 214.0874 145.7262 14.27129507190314
FORMOSAT 3C             
1 29049U 06011C   09309.15699856  .00000361  00000-0  16364-3 0   806
2 29049  72.0198 159.4773 0037238 273.5219  86.1643 14.27139164186091
FORMOSAT 3D             
1 29050U 06011D   09308.95995317  .00001099  00000-0  26646-3 0  3644
2 29050  72.0102 325.4653 0051889 151.1622 209.2375 14.54091573191702
FORMOSAT 3E             
1 29051U 06011E   09309.46944160  .00000373  00000-0  16522-3 0  1398
2 29051  72.0076  67.6029 0069031 143.1026 217.4888 14.27132851188725
FORMOSAT 3F             
1 29052U 06011F   09308.88672153  .00000360  00000-0  16273-3 0  1573
2 29052  72.0335 131.2797 0042407 244.5649 115.1091 14.27138288186941
GOES 13                 
1 29155U 06018A   09309.46387402 -.00000077  00000-0  10000-3 0  8204
2 29155   0.2224 102.0835 0003383 113.9783 250.3048  1.00272275 12676
METOP-A                 
1 29499U 06044A   09308.95728757 -.00000341  00000-0 -13581-3 0  9549
2 29499  98.7064   6.9745 0000550 102.4123 257.7080 14.21487565158010
FENGYUN 2D              
1 29640U 06053A   09308.90724310 -.00000182  00000-0  10000-3 0  7793
2 29640   0.1511 151.8896 0002475 155.0883 150.0359  1.00265125 10711
FENGYUN 3A              
1 32958U 08026A   09309.16116452  .00000167  00000-0  10000-3 0  4443
2 32958  98.7562  19.1943 0001404  83.4198 276.7095 14.19598057 74786
NOAA 19                 
1 33591U 09005A   09309.35517975 -.00000191  00000-0 -82514-4 0  3089
2 33591  98.7620 251.5353 0013648 200.1126 159.9514 14.10996608 38349
GOES 14                 
1 35491U 09033A   09309.50000000 -.00000133  00000-0  00000+0 0  1891
2 35491   0.3570 263.1240 0018852 302.5920 288.9350  1.00001733  1340
METEOR-M 1              
1 35865U 09049A   09309.49297479  .00000176  00000-0  10000-3 0   462
2 35865  98.7933 359.5194 0001504 302.4944  57.6080 14.21827058  6932
